HST                     
1 20580U 90037B   23249.24793325  .00004390  00000+0  22582-3 0  9996
2 20580  28.4691  88.3680 0002270 167.5375 345.7579 15.13936932633751
